{
    "links": {
        "self": "http://www.neowsapp.com/rest/v1/neo/3743895?api_key=iIulBulltgU6a56xZRHN4H3l9WmuAYTsLGpBGhQ2"
    },
    "id": "3743895",
    "neo_reference_id": "3743895",
    "name": "(2016 CK246)",
    "designation": "2016 CK246",
    "nasa_jpl_url": "http://ssd.jpl.nasa.gov/sbdb.cgi?sstr=3743895",
    "absolute_magnitude_h": 21.9,
    "estimated_diameter": {
        "kilometers": {
            "estimated_diameter_min": 0.1108038821,
            "estimated_diameter_max": 0.2477650126
        },
        "meters": {
            "estimated_diameter_min": 110.8038821264,
            "estimated_diameter_max": 247.7650126055
        },
        "miles": {
            "estimated_diameter_min": 0.068850319,
            "estimated_diameter_max": 0.1539539936
        },
        "feet": {
            "estimated_diameter_min": 363.5298086356,
            "estimated_diameter_max": 812.8773639568
        }
    },
    "is_potentially_hazardous_asteroid": false,
    "close_approach_data": [
        {
            "close_approach_date": "1945-01-24",
            "close_approach_date_full": "1945-Jan-24 16:30",
            "epoch_date_close_approach": -786871800000,
            "relative_velocity": {
                "kilometers_per_second": "17.237294428",
                "kilometers_per_hour": "62054.2599407672",
                "miles_per_hour": "38558.1039059728"
            },
            "miss_distance": {
                "astronomical": "0.3099276011",
                "lunar": "120.5618368279",
                "kilometers": "46364508.978769657",
                "miles": "28809569.9618969866"
            },
            "orbiting_body": "Earth"
        },
        {
            "close_approach_date": "2016-03-15",
            "close_approach_date_full": "2016-Mar-15 04:47",
            "epoch_date_close_approach": 1458017220000,
            "relative_velocity": {
                "kilometers_per_second": "11.268101966",
                "kilometers_per_hour": "40565.1670776248",
                "miles_per_hour": "25205.6172877608"
            },
            "miss_distance": {
                "astronomical": "0.2756870952",
                "lunar": "107.2422800328",
                "kilometers": "41242202.228407224",
                "miles": "25626716.1381147312"
            },
            "orbiting_body": "Earth"
        },
        {
            "close_approach_date": "2198-04-28",
            "close_approach_date_full": "2198-Apr-28 12:00",
            "epoch_date_close_approach": 7205198400000,
            "relative_velocity": {
                "kilometers_per_second": "19.1218766052",
                "kilometers_per_hour": "68838.7557788971",
                "miles_per_hour": "42773.7257782819"
            },
            "miss_distance": {
                "astronomical": "0.4291469661",
                "lunar": "166.9381698129",
                "kilometers": "64199472.045522207",
                "miles": "39891702.1262801766"
            },
            "orbiting_body": "Earth"
        }
    ],
    "orbital_data": {
        "orbit_id": "10",
        "orbit_determination_date": "2017-04-06 08:28:17",
        "first_observation_date": "2016-02-10",
        "last_observation_date": "2016-03-16",
        "data_arc_in_days": 35,
        "observations_used": 126,
        "orbit_uncertainty": "7",
        "minimum_orbit_intersection": ".149331",
        "jupiter_tisserand_invariant": "2.478",
        "epoch_osculation": "2459000.5",
        "eccentricity": ".7261750850610168",
        "semi_major_axis": "3.992025663830513",
        "inclination": "12.72372480156469",
        "ascending_node_longitude": "304.566850661195",
        "orbital_period": "2913.321499178499",
        "perihelion_distance": "1.093116087832628",
        "perihelion_argument": "217.29674701171",
        "aphelion_distance": "6.890935239828399",
        "perihelion_time": "2460372.912477875486",
        "mean_anomaly": "190.4105838732551",
        "mean_motion": ".1235702960011496",
        "equinox": "J2000",
        "orbit_class": {
            "orbit_class_type": "AMO",
            "orbit_class_description": "Near-Earth asteroid orbits similar to that of 1221 Amor",
            "orbit_class_range": "1.017 AU < q (perihelion) < 1.3 AU"
        }
    },
    "is_sentry_object": false
}